NORAD_CAT_ID,OBJECT_NAME,OBJECT_TYPE,EPOCH,MEAN_MOTION,ECCENTRICITY,INCLINATION,RA_OF_ASC_NODE,ARG_OF_PERICENTER,MEAN_ANOMALY,BSTAR,MEAN_MOTION_DOT,MEAN_MOTION_DDOT,TLE_LINE0,TLE_LINE1,TLE_LINE2,SEMIMAJOR_AXIS,PERIOD,APOGEE,PERIGEE,DECAYED
53630.0,STARLINK-4598,PAYLOAD,2024-03-10 06:00:07,15.08845383,0.0001628,53.213,258.7742,90.1178,270.0001,0.00014575,2.033e-05,0.0,0 STARLINK-4598,1 53630U 22104AU  24070.25008294  .00002033  00000-0  14575-3 0  9992,2 53630  53.2130 258.7742 0001628  90.1178 270.0001 15.08845383 85942,6917.864,95.437,540.855,538.603,0.0
53630.0,STARLINK-4598,PAYLOAD,2024-03-10 18:43:12,15.08845433,0.0001472,53.2119,256.3925,98.1577,261.9582,0.0001234,1.677e-05,0.0,0 STARLINK-4598,1 53630U 22104AU  24070.78000144  .00001677  00000-0  12340-3 0  9997,2 53630  53.2119 256.3925 0001472  98.1577 261.9582 15.08845433 86023,6917.864,95.437,540.747,538.71,0.0
53630.0,STARLINK-4598,PAYLOAD,2024-03-11 05:50:54,15.08839972,0.0001128,53.2169,254.3116,103.4788,256.633,0.00031668,4.756e-05,0.0,0 STARLINK-4598,1 53630U 22104AU  24071.24368383  .00004756  00000-0  31668-3 0  9996,2 53630  53.2169 254.3116 0001128 103.4788 256.6330 15.08839972 85235,6917.88,95.438,540.526,538.965,0.0
53630.0,STARLINK-4598,PAYLOAD,2024-03-11 21:44:45,15.0884355,0.0001153,53.2195,251.3394,104.9795,255.1325,-9.5255e-07,-3.03e-06,0.0,0 STARLINK-4598,1 53630U 22104AU  24071.90608239 -.00000303  00000-0 -95255-6 0  9997,2 53630  53.2195 251.3394 0001153 104.9795 255.1325 15.08843550 85337,6917.87,95.437,540.532,538.937,0.0
53630.0,STARLINK-4598,PAYLOAD,2024-03-13 11:54:01,15.08840644,0.0001403,53.2153,244.2012,95.2104,264.9048,0.00010555,1.392e-05,0.0,0 STARLINK-4598,1 53630U 22104AU  24073.49584745  .00001392  00000-0  10555-3 0  9992,2 53630  53.2153 244.2012 0001403  95.2104 264.9048 15.08840644 85570,6917.878,95.438,540.714,538.773,0.0
53630.0,STARLINK-4598,PAYLOAD,2024-03-13 21:26:20,15.08835613,0.0001373,53.2117,242.4181,89.3405,270.7745,8.4309e-05,1.054e-05,0.0,0 STARLINK-4598,1 53630U 22104AU  24073.89329179  .00001054  00000-0  84309-4 0  9998,2 53630  53.2117 242.4181 0001373  89.3405 270.7745 15.08835613 86492,6917.894,95.438,540.709,538.809,0.0
53630.0,STARLINK-4598,PAYLOAD,2024-03-14 21:17:07,15.08835109,0.0001423,53.2146,237.9565,76.809,283.3061,0.00012227,1.658e-05,0.0,0 STARLINK-4598,1 53630U 22104AU  24074.88689475  .00001658  00000-0  12227-3 0  9995,2 53630  53.2146 237.9565 0001423  76.8090 283.3061 15.08835109 86644,6917.895,95.438,540.745,538.776,0.0
53630.0,STARLINK-4598,PAYLOAD,2024-03-15 10:00:12,15.08838975,0.0001112,53.2139,235.5784,85.2052,274.9067,0.0001502,2.103e-05,0.0,0 STARLINK-4598,1 53630U 22104AU  24075.41681301  .00002103  00000-0  15020-3 0  9995,2 53630  53.2139 235.5784 0001112  85.2052 274.9067 15.08838975 85869,6917.884,95.438,540.518,538.979,0.0
53630.0,STARLINK-4598,PAYLOAD,2024-03-15 21:07:54,15.08843516,0.000115,53.2139,233.4967,90.1676,269.9447,0.00018752,2.698e-05,0.0,0 STARLINK-4598,1 53630U 22104AU  24075.88049099  .00002698  00000-0  18752-3 0  9992,2 53630  53.2139 233.4967 0001150  90.1676 269.9447 15.08843516 86794,6917.87,95.437,540.53,538.939,0.0
53630.0,STARLINK-4598,PAYLOAD,2024-03-16 14:37:09,15.0883841,0.0001187,53.214,230.2252,94.6554,265.4574,7.0604e-05,8.36e-06,0.0,0 STARLINK-4598,1 53630U 22104AU  24076.60913439  .00000836  00000-0  70604-4 0  9998,2 53630  53.2140 230.2252 0001187  94.6554 265.4574 15.08838410 86904,6917.885,95.438,540.571,538.929,0.0
53630.0,STARLINK-4598,PAYLOAD,2024-03-16 17:47:55,15.08838445,0.000124,53.2151,229.6308,94.7856,265.3277,6.0074e-05,6.68e-06,0.0,0 STARLINK-4598,1 53630U 22104AU  24076.74161465  .00000668  00000-0  60074-4 0  9990,2 53630  53.2151 229.6308 0001240  94.7856 265.3277 15.08838445 86060,6917.885,95.438,540.608,538.892,0.0
53630.0,STARLINK-4598,PAYLOAD,2024-03-17 14:27:56,15.08841159,0.0001253,53.2149,225.765,94.5877,265.5259,7.4343e-05,8.96e-06,0.0,0 STARLINK-4598,1 53630U 22104AU  24077.60273414  .00000896  00000-0  74343-4 0  9991,2 53630  53.2149 225.7650 0001253  94.5877 265.5259 15.08841159 87057,6917.877,95.437,540.609,538.875,0.0
53630.0,STARLINK-4598,PAYLOAD,2024-03-17 19:14:05,15.08848137,0.0001287,53.2162,224.8728,94.9129,265.201,0.00011419,1.53e-05,0.0,0 STARLINK-4598,1 53630U 22104AU  24077.80144998  .00001530  00000-0  11419-3 0  9997,2 53630  53.2162 224.8728 0001287  94.9129 265.2010 15.08848137 86222,6917.856,95.437,540.611,538.83,0.0
53630.0,STARLINK-4598,PAYLOAD,2024-03-18 19:04:52,15.08841903,0.0001606,53.2183,220.4071,74.3912,285.7257,0.00011714,1.577e-05,0.0,0 STARLINK-4598,1 53630U 22104AU  24078.79505502  .00001577  00000-0  11714-3 0  9997,2 53630  53.2183 220.4071 0001606  74.3912 285.7257 15.08841903 86375,6917.875,95.437,540.851,538.629,0.0
53630.0,STARLINK-4598,PAYLOAD,2024-03-19 09:23:20,15.08846005,0.000152,53.2185,217.7328,98.9371,261.1793,9.0845e-05,1.158e-05,0.0,0 STARLINK-4598,1 53630U 22104AU  24079.39121184  .00001158  00000-0  90845-4 0  9992,2 53630  53.2185 217.7328 0001520  98.9371 261.1793 15.08846005 87324,6917.862,95.437,540.779,538.676,0.0
53630.0,STARLINK-4598,PAYLOAD,2024-03-20 09:14:07,15.088415,0.0001346,53.2157,213.2787,87.704,272.4106,0.00010732,1.421e-05,0.0,0 STARLINK-4598,1 53630U 22104AU  24080.38481223  .00001421  00000-0  10732-3 0  9995,2 53630  53.2157 213.2787 0001346  87.7040 272.4106 15.08841500 86617,6917.876,95.437,540.672,538.81,0.0
53630.0,STARLINK-4598,PAYLOAD,2024-03-20 14:00:17,15.08825817,0.0001377,53.2165,212.3857,91.3026,268.8124,-0.00012109,-2.214e-05,0.0,0 STARLINK-4598,1 53630U 22104AU  24080.58354017 -.00002214  00000-0 -12109-3 0  9990,2 53630  53.2165 212.3857 0001377  91.3026 268.8124 15.08825817 87504,6917.924,95.438,540.741,538.836,0.0
53630.0,STARLINK-4598,PAYLOAD,2024-03-21 01:07:59,15.08837858,0.0001324,53.2168,210.3037,91.1607,268.9537,6.0063e-05,6.68e-06,0.0,0 STARLINK-4598,1 53630U 22104AU  24081.04721648  .00000668  00000-0  60063-4 0  9992,2 53630  53.2168 210.3037 0001324  91.1607 268.9537 15.08837858 86719,6917.887,95.438,540.668,538.836,0.0
53630.0,STARLINK-4598,PAYLOAD,2024-03-21 15:26:26,15.08865027,0.0001519,53.2162,207.6252,78.5853,281.531,0.00038944,5.92e-05,0.0,0 STARLINK-4598,1 53630U 22104AU  24081.64336505  .00005920  00000-0  38944-3 0  9990,2 53630  53.2162 207.6252 0001519  78.5853 281.5310 15.08865027 87663,6917.804,95.436,540.72,538.618,0.0
53630.0,STARLINK-4598,PAYLOAD,2024-03-22 12:06:28,15.08839667,0.0001454,53.2149,203.7579,101.1759,258.9396,0.00028167,4.198e-05,0.0,0 STARLINK-4598,1 53630U 22104AU  24082.50449636  .00004198  00000-0  28167-3 0  9998,2 53630  53.2149 203.7579 0001454 101.1759 258.9396 15.08839667 86935,6917.881,95.438,540.752,538.741,0.0
53630.0,STARLINK-4598,PAYLOAD,2024-03-22 13:41:51,15.08844743,0.0001308,53.2154,203.4609,72.8602,287.2533,0.00028913,4.317e-05,0.0,0 STARLINK-4598,1 53630U 22104AU  24082.57073595  .00004317  00000-0  28913-3 0  9994,2 53630  53.2154 203.4609 0001308  72.8602 287.2533 15.08844743 87807,6917.866,95.437,540.636,538.826,0.0
53630.0,STARLINK-4598,PAYLOAD,2024-03-22 16:52:37,15.08847628,0.0001351,53.216,202.8689,75.642,284.4722,0.000306,4.586e-05,0.0,0 STARLINK-4598,1 53630U 22104AU  24082.70321477  .00004586  00000-0  30600-3 0  9998,2 53630  53.2160 202.8689 0001351  75.6420 284.4722 15.08847628 87828,6917.857,95.437,540.657,538.787,0.0
53630.0,STARLINK-4598,PAYLOAD,2024-03-23 13:32:39,15.08831116,0.0001417,53.2154,199.0029,101.422,258.6932,-0.00011174,-2.065e-05,0.0,0 STARLINK-4598,1 53630U 22104AU  24083.56434184 -.00002065  00000-0 -11174-3 0  9990,2 53630  53.2154 199.0029 0001417 101.4220 258.6932 15.08831116 87095,6917.908,95.438,540.753,538.792,0.0
53630.0,STARLINK-4598,PAYLOAD,2024-03-23 15:08:02,15.0883255,0.0001462,53.2161,198.7066,97.9912,262.1246,-6.8868e-05,-1.384e-05,0.0,0 STARLINK-4598,1 53630U 22104AU  24083.63058254 -.00001384  00000-0 -68868-4 0  9994,2 53630  53.2161 198.7066 0001462  97.9912 262.1246 15.08832550 87964,6917.903,95.438,540.78,538.757,0.0
53630.0,STARLINK-4598,PAYLOAD,2024-03-24 13:23:26,15.088495,0.0001443,53.2165,194.5433,98.3348,261.7808,0.00054447,8.39e-05,0.0,0 STARLINK-4598,1 53630U 22104AU  24084.55794265  .00008390  00000-0  54447-3 0  9994,2 53630  53.2165 194.5433 0001443  98.3348 261.7808 15.08849500 87240,6917.851,95.437,540.715,538.718,0.0
53630.0,STARLINK-4598,PAYLOAD,2024-03-24 14:58:49,15.08852034,0.0001401,53.2164,194.2459,95.0122,265.103,0.00077131,0.00012013,0.0,0 STARLINK-4598,1 53630U 22104AU  24084.62418316  .00012013  00000-0  77131-3 0  9994,2 53630  53.2164 194.2459 0001401  95.0122 265.1030 15.08852034 88110,6917.844,95.437,540.678,538.739,0.0
53630.0,STARLINK-4598,PAYLOAD,2024-03-25 13:14:12,15.08852071,0.0001383,53.2158,190.083,110.7934,249.3206,0.00033294,5.016e-05,0.0,0 STARLINK-4598,1 53630U 22104AU  24085.55153821  .00005016  00000-0  33294-3 0  9991,2 53630  53.2158 190.0830 0001383 110.7934 249.3206 15.08852071 87394,6917.843,95.437,540.665,538.752,0.0
53630.0,STARLINK-4598,PAYLOAD,2024-03-26 13:05:01,15.08819798,0.00013,53.216,185.6222,93.1704,266.9437,-0.0002814,-4.761e-05,0.0,0 STARLINK-4598,1 53630U 22104AU  24086.54515290 -.00004761  00000-0 -28140-3 0  9995,2 53630  53.2160 185.6222 0001300  93.1704 266.9437 15.08819798 87547,6917.942,95.439,540.706,538.908,0.0
53630.0,STARLINK-4598,PAYLOAD,2024-03-27 12:55:48,15.08839585,0.0001307,53.2161,181.1619,87.3481,272.766,0.00014915,2.087e-05,0.0,0 STARLINK-4598,1 53630U 22104AU  24087.53875011  .00002087  00000-0  14915-3 0  9997,2 53630  53.2161 181.1619 0001307  87.3481 272.7660 15.08839585 87698,6917.882,95.438,540.651,538.842,0.0
53630.0,STARLINK-4598,PAYLOAD,2024-03-27 16:06:34,15.08841638,0.0001295,53.216,180.5669,87.1537,272.9603,0.00019262,2.779e-05,0.0,0 STARLINK-4598,1 53630U 22104AU  24087.67123004  .00002779  00000-0  19262-3 0  9998,2 53630  53.2160 180.5669 0001295  87.1537 272.9603 15.08841638 88570,6917.875,95.437,540.636,538.845,0.0
